OBJECT_NAME,OBJECT_ID,EPOCH,MEAN_MOTION,ECCENTRICITY,INCLINATION,RA_OF_ASC_NODE,ARG_OF_PERICENTER,MEAN_ANOMALY,EPHEMERIS_TYPE,CLASSIFICATION_TYPE,NORAD_CAT_ID,ELEMENT_SET_NO,REV_AT_EPOCH,BSTAR,MEAN_MOTION_DOT,MEAN_MOTION_DDOT
LEMUR-1,2014-033AL,2026-07-13T08:46:00.556608,14.85333807,.00479283,97.7905,343.5942,353.9806,6.0828,0,U,40044,999,64935,.10005631E-3,.822E-5,0
LEMUR-2-GREENBERG,2017-042N,2026-07-13T11:30:25.424352,15.32118737,.00071612,97.3826,14.9999,266.6725,93.3697,0,U,42837,999,49241,.30775394E-3,.9474E-4,0
LEMUR-2-ANDIS,2017-042P,2026-07-13T07:35:17.347200,15.35874603,.0007134,97.3675,15.1146,265.7451,94.2978,0,U,42838,999,49246,.39625513E-3,.13773E-3,0
LEMUR-2-MONSON,2017-042Q,2026-07-13T11:31:39.047520,15.28724915,.00052336,97.4083,14.9315,253.3353,106.7313,0,U,42839,999,49218,.28945345E-3,.8012E-4,0
LEMUR-2-FURIAUS,2017-042R,2026-07-12T10:41:36.677760,15.31072029,.00062398,97.3775,11.8672,340.6601,19.4403,0,U,42840,999,49207,.35675373E-3,.10642E-3,0
LEMUR-2-PETERG,2017-042S,2026-07-13T13:50:27.995424,15.34990825,.00031905,97.3988,19.6711,226.9746,133.1231,0,U,42841,999,49248,.33984643E-3,.11461E-3,0
LEMUR-2-DEMBITZ,2017-042T,2026-07-13T10:41:40.894944,15.31075730,.00050251,97.3823,15.9038,282.7379,77.3301,0,U,42842,999,49236,.34897446E-3,.10407E-3,0
LEMUR-2-ZACHARY,2017-042W,2026-07-13T12:07:53.043456,15.52606320,.00024753,97.3570,26.7449,255.1233,104.9746,0,U,42845,999,49328,.51240898E-3,.31484E-3,0
LEMUR-2-AMANDA-SVANTE,2021-034B,2026-07-12T18:42:41.198400,15.35862163,.00045305,97.5758,272.7671,149.3541,210.7967,0,U,48269,999,28498,.74134462E-3,.25852E-3,0
LEMUR-2-SPECIAL-K,2021-034F,2026-07-12T18:59:05.709984,15.73857408,.00062099,97.5640,282.6731,216.3246,143.7597,0,U,48273,999,28570,.15539726E-2,.224827E-2,0
LEMUR-2-EMBRIONOVIS,2023-084AQ,2026-07-13T08:36:15.398784,15.38198824,.00081393,97.6315,339.5788,213.3126,146.7608,0,U,56970,999,17170,.23577819E-3,.8792E-4,0
LEMUR-2-DEVERILL-M-T,2023-100F,2026-07-13T00:33:25.559136,15.41024565,.00046595,99.4456,240.2682,306.5620,53.5190,0,U,57391,999,16522,.4809621E-3,.19765E-3,0
LEMUR-2-BASS,2023-174D,2026-07-12T22:44:15.073152,15.43947109,.00077681,97.3851,279.0335,85.0548,275.1587,0,U,58259,999,14933,.2892081E-3,.13088E-3,0
LEMUR-2-JK0903EM1407,2023-174CJ,2026-07-13T01:22:12.874080,15.52994867,.00038163,97.3925,285.2802,41.2972,318.8569,0,U,58336,999,14974,.33514093E-3,.20824E-3,0
LEMUR-2-MJR092620,2023-174CN,2026-07-13T13:51:47.006496,15.45823822,.00054581,97.3982,285.1095,35.5072,324.6540,0,U,58340,999,14972,.23686859E-3,.11402E-3,0
LEMUR-2-NIMBUS2000,2024-022A,2026-07-13T12:22:08.300640,15.41070086,.0008918,97.4084,44.8635,34.2151,325.9668,0,U,58899,999,13632,.33633384E-3,.13841E-3,0
LEMUR-2-VALHALLA,2024-022B,2026-07-13T12:28:09.545952,15.40455427,.00093676,97.4077,44.8395,29.8669,330.3110,0,U,58900,999,13632,.24466141E-3,.9838E-4,0
LEMUR-2-CAEL,2024-022E,2026-07-13T12:09:33.824736,15.41818881,.00072997,97.4063,45.8095,15.6221,344.5250,0,U,58903,999,13639,.25158169E-3,.10583E-3,0
LEMUR-2-JOHNNYTRUONG,2024-043BA,2026-07-13T10:11:36.440448,15.62464736,.00041836,97.5381,347.7948,98.9068,261.2663,0,U,59146,999,13213,.31008954E-3,.2747E-3,0
LEMUR-2-TOMATOKECHUP,2024-149D,2026-07-12T18:28:56.034336,15.36552511,.00032176,97.3802,275.8895,127.0790,233.0748,0,U,60471,999,10609,.21931543E-3,.7744E-4,0
LEMUR-2-STELLA,2024-149BT,2026-07-13T05:18:28.282752,15.12347707,.0001238,97.6740,276.7986,110.4847,249.6516,0,U,60533,999,10443,.36958E-3,.6342E-4,0
LEMUR-2-MARHISYAM,2024-149BW,2026-07-13T00:18:19.714752,15.11754239,.00027158,97.6885,277.0636,73.2664,286.8864,0,U,60536,999,10438,.39418223E-3,.6657E-4,0
LEMUR-2-AHMED-ASRAR,2024-149DN,2026-07-12T18:09:59.931360,15.13277524,.00009363,97.7013,278.9991,206.0418,154.0766,0,U,60576,999,10443,.43624598E-3,.7696E-4,0
LEMUR-2-LLOYD,2024-149DP,2026-07-13T03:50:48.204096,15.09730336,.00048441,97.6750,275.3105,76.5693,283.6075,0,U,60577,999,10431,.41326369E-3,.6603E-4,0
LEMUR-2-SQUIRRELCOMM,2024-149DQ,2026-07-13T11:27:52.149888,15.07437793,.00041606,97.6716,275.3097,336.8563,23.2477,0,U,60578,999,10436,.1979717E-3,.2936E-4,0
LEMUR-2-SIERRINI,2024-149DR,2026-07-13T04:10:02.381952,15.11486633,.00064096,97.6847,276.8886,95.7209,264.4752,0,U,60579,999,10438,.42518317E-3,.7136E-4,0
LEMUR-2-WILSON,2025-009CP,2026-07-13T12:41:34.657440,14.95273821,.00021562,97.7022,272.5318,334.3743,25.7371,0,U,62694,999,8129,.69875088E-4,.713E-5,0
LEMUR-2-STAR-FOX,2025-009CR,2026-07-13T04:42:11.102976,15.02826817,.0002496,97.6916,275.6183,51.1961,308.9486,0,U,62696,999,8146,.26868E-3,.3538E-4,0
LEMUR-2-ARIANNA,2025-009CU,2026-07-13T04:39:58.762368,15.02827703,.0002756,97.6857,275.3703,58.1341,302.0152,0,U,62699,999,8146,.27836E-3,.3668E-4,0
LEMUR-2-ALISIA,2025-009DB,2026-07-13T04:00:49.264704,15.03157072,.00040392,97.6972,276.1644,134.8239,225.3315,0,U,62706,999,10406,.35425275E-3,.4726E-4,0
